STARLINK-2052
1 17662C 21012AU  21326.12465530  .00008632  00000-0  57828-3 0  3267
2 17662  53.0534 253.1855 0002144  63.0617 248.2383 15.06392234    16
